CCSDS_OMM_VERS = 2.0
CREATION_DATE  = 
ORIGINATOR     = 

OBJECT_NAME    = STARLINK-35778
OBJECT_ID      = 2025-288Q
CENTER_NAME    = EARTH
REF_FRAME      = TEME
TIME_SYSTEM    = UTC
MEAN_ELEMENT_THEORY = SGP/SGP4

EPOCH          = 2026-01-04T04:00:01.998720
MEAN_MOTION    = 15.40682458
ECCENTRICITY   = .0000921
INCLINATION    = 43.0007
RA_OF_ASC_NODE = 32.9098
ARG_OF_PERICENTER = 254.4197
MEAN_ANOMALY   = 11.2627

EPHEMERIS_TYPE = 0
CLASSIFICATION_TYPE = U
NORAD_CAT_ID   = 66973
ELEMENT_SET_NO = 999
REV_AT_EPOCH   = 543
BSTAR          = .10295E-2
MEAN_MOTION_DOT = .42916E-3
MEAN_MOTION_DDOT = 0

CCSDS_OMM_VERS = 2.0
CREATION_DATE  = 
ORIGINATOR     = 

OBJECT_NAME    = STARLINK-35780
OBJECT_ID      = 2025-288R
CENTER_NAME    = EARTH
REF_FRAME      = TEME
TIME_SYSTEM    = UTC
MEAN_ELEMENT_THEORY = SGP/SGP4

EPOCH          = 2026-01-04T04:00:01.998720
MEAN_MOTION    = 15.40657093
ECCENTRICITY   = .0000674
INCLINATION    = 43.0004
RA_OF_ASC_NODE = 32.8494
ARG_OF_PERICENTER = 256.1982
MEAN_ANOMALY   = 34.4398

EPHEMERIS_TYPE = 0
CLASSIFICATION_TYPE = U
NORAD_CAT_ID   = 66974
ELEMENT_SET_NO = 999
REV_AT_EPOCH   = 543
BSTAR          = .1061E-2
MEAN_MOTION_DOT = .44212E-3
MEAN_MOTION_DDOT = 0

CCSDS_OMM_VERS = 2.0
CREATION_DATE  = 
ORIGINATOR     = 

OBJECT_NAME    = STARLINK-35777
OBJECT_ID      = 2025-288S
CENTER_NAME    = EARTH
REF_FRAME      = TEME
TIME_SYSTEM    = UTC
MEAN_ELEMENT_THEORY = SGP/SGP4

EPOCH          = 2026-01-04T04:00:01.998720
MEAN_MOTION    = 15.40659645
ECCENTRICITY   = .0001128
INCLINATION    = 43.0002
RA_OF_ASC_NODE = 32.8175
ARG_OF_PERICENTER = 257.8448
MEAN_ANOMALY   = 45.2372

EPHEMERIS_TYPE = 0
CLASSIFICATION_TYPE = U
NORAD_CAT_ID   = 66975
ELEMENT_SET_NO = 999
REV_AT_EPOCH   = 543
BSTAR          = .92625E-3
MEAN_MOTION_DOT = .38531E-3
MEAN_MOTION_DDOT = 0

CCSDS_OMM_VERS = 2.0
CREATION_DATE  = 
ORIGINATOR     = 

OBJECT_NAME    = STARLINK-35772
OBJECT_ID      = 2025-288T
CENTER_NAME    = EARTH
REF_FRAME      = TEME
TIME_SYSTEM    = UTC
MEAN_ELEMENT_THEORY = SGP/SGP4

EPOCH          = 2026-01-04T03:04:57.410400
MEAN_MOTION    = 15.40719174
ECCENTRICITY   = .000132
INCLINATION    = 43.0019
RA_OF_ASC_NODE = 35.0295
ARG_OF_PERICENTER = 286.4447
MEAN_ANOMALY   = 73.6264

EPHEMERIS_TYPE = 0
CLASSIFICATION_TYPE = U
NORAD_CAT_ID   = 66976
ELEMENT_SET_NO = 999
REV_AT_EPOCH   = 533
BSTAR          = .17707E-2
MEAN_MOTION_DOT = .74433E-3
MEAN_MOTION_DDOT = 0

CCSDS_OMM_VERS = 2.0
CREATION_DATE  = 
ORIGINATOR     = 

OBJECT_NAME    = STARLINK-35770
OBJECT_ID      = 2025-288U
CENTER_NAME    = EARTH
REF_FRAME      = TEME
TIME_SYSTEM    = UTC
MEAN_ELEMENT_THEORY = SGP/SGP4

EPOCH          = 2026-01-01T14:00:43.463232
MEAN_MOTION    = 15.50604727
ECCENTRICITY   = .000113
INCLINATION    = 43.0009
RA_OF_ASC_NODE = 47.6983
ARG_OF_PERICENTER = 275.3451
MEAN_ANOMALY   = 84.7280

EPHEMERIS_TYPE = 0
CLASSIFICATION_TYPE = U
NORAD_CAT_ID   = 66977
ELEMENT_SET_NO = 999
REV_AT_EPOCH   = 496
BSTAR          = .17973E-2
MEAN_MOTION_DOT = .106642E-2
MEAN_MOTION_DDOT = 0

CCSDS_OMM_VERS = 2.0
CREATION_DATE  = 
ORIGINATOR     = 

OBJECT_NAME    = STARLINK-35787
OBJECT_ID      = 2025-288V
CENTER_NAME    = EARTH
REF_FRAME      = TEME
TIME_SYSTEM    = UTC
MEAN_ELEMENT_THEORY = SGP/SGP4

EPOCH          = 2026-01-04T02:54:21.997152
MEAN_MOTION    = 15.40747585
ECCENTRICITY   = .000037
INCLINATION    = 43.0006
RA_OF_ASC_NODE = 33.2006
ARG_OF_PERICENTER = 18.7264
MEAN_ANOMALY   = 341.3606

EPHEMERIS_TYPE = 0
CLASSIFICATION_TYPE = U
NORAD_CAT_ID   = 66978
ELEMENT_SET_NO = 999
REV_AT_EPOCH   = 535
BSTAR          = .2258E-2
MEAN_MOTION_DOT = .95356E-3
MEAN_MOTION_DDOT = 0

CCSDS_OMM_VERS = 2.0
CREATION_DATE  = 
ORIGINATOR     = 

OBJECT_NAME    = STARLINK-36107
OBJECT_ID      = 2025-288W
CENTER_NAME    = EARTH
REF_FRAME      = TEME
TIME_SYSTEM    = UTC
MEAN_ELEMENT_THEORY = SGP/SGP4

EPOCH          = 2026-01-04T02:16:18.903072
MEAN_MOTION    = 15.50636151
ECCENTRICITY   = .0001429
INCLINATION    = 43.0009
RA_OF_ASC_NODE = 32.9963
ARG_OF_PERICENTER = 241.3351
MEAN_ANOMALY   = 118.7365

EPHEMERIS_TYPE = 0
CLASSIFICATION_TYPE = U
NORAD_CAT_ID   = 66979
ELEMENT_SET_NO = 999
REV_AT_EPOCH   = 535
BSTAR          = .25633E-2
MEAN_MOTION_DOT = .15333E-2
MEAN_MOTION_DDOT = 0

CCSDS_OMM_VERS = 2.0
CREATION_DATE  = 
ORIGINATOR     = 

OBJECT_NAME    = STARLINK-36086
OBJECT_ID      = 2025-288X
CENTER_NAME    = EARTH
REF_FRAME      = TEME
TIME_SYSTEM    = UTC
MEAN_ELEMENT_THEORY = SGP/SGP4

EPOCH          = 2026-01-04T04:00:01.998720
MEAN_MOTION    = 15.40657832
ECCENTRICITY   = .0000776
INCLINATION    = 43.0000
RA_OF_ASC_NODE = 32.7559
ARG_OF_PERICENTER = 231.9592
MEAN_ANOMALY   = 95.9944

EPHEMERIS_TYPE = 0
CLASSIFICATION_TYPE = U
NORAD_CAT_ID   = 66980
ELEMENT_SET_NO = 999
REV_AT_EPOCH   = 543
BSTAR          = .10405E-2
MEAN_MOTION_DOT = .43345E-3
MEAN_MOTION_DDOT = 0

CCSDS_OMM_VERS = 2.0
CREATION_DATE  = 
ORIGINATOR     = 

OBJECT_NAME    = STARLINK-36142
OBJECT_ID      = 2025-288Y
CENTER_NAME    = EARTH
REF_FRAME      = TEME
TIME_SYSTEM    = UTC
MEAN_ELEMENT_THEORY = SGP/SGP4

EPOCH          = 2026-01-04T04:00:01.998720
MEAN_MOTION    = 15.40656953
ECCENTRICITY   = .0001162
INCLINATION    = 42.9995
RA_OF_ASC_NODE = 32.6955
ARG_OF_PERICENTER = 262.9291
MEAN_ANOMALY   = 89.9245

EPHEMERIS_TYPE = 0
CLASSIFICATION_TYPE = U
NORAD_CAT_ID   = 66981
ELEMENT_SET_NO = 999
REV_AT_EPOCH   = 543
BSTAR          = .93802E-3
MEAN_MOTION_DOT = .39024E-3
MEAN_MOTION_DDOT = 0

CCSDS_OMM_VERS = 2.0
CREATION_DATE  = 
ORIGINATOR     = 

OBJECT_NAME    = STARLINK-36113
OBJECT_ID      = 2025-288Z
CENTER_NAME    = EARTH
REF_FRAME      = TEME
TIME_SYSTEM    = UTC
MEAN_ELEMENT_THEORY = SGP/SGP4

EPOCH          = 2026-01-04T02:14:51.243360
MEAN_MOTION    = 15.50392213
ECCENTRICITY   = .0003756
INCLINATION    = 43.0006
RA_OF_ASC_NODE = 32.9870
ARG_OF_PERICENTER = 245.9794
MEAN_ANOMALY   = 114.0673

EPHEMERIS_TYPE = 0
CLASSIFICATION_TYPE = U
NORAD_CAT_ID   = 66982
ELEMENT_SET_NO = 999
REV_AT_EPOCH   = 535
BSTAR          = .1608E-2
MEAN_MOTION_DOT = .94524E-3
MEAN_MOTION_DDOT = 0

CCSDS_OMM_VERS = 2.0
CREATION_DATE  = 
ORIGINATOR     = 

OBJECT_NAME    = STARLINK-36145
OBJECT_ID      = 2025-288AA
CENTER_NAME    = EARTH
REF_FRAME      = TEME
TIME_SYSTEM    = UTC
MEAN_ELEMENT_THEORY = SGP/SGP4

EPOCH          = 2026-01-04T02:13:49.736064
MEAN_MOTION    = 15.50598719
ECCENTRICITY   = .0001094
INCLINATION    = 43.0005
RA_OF_ASC_NODE = 32.9821
ARG_OF_PERICENTER = 250.7498
MEAN_ANOMALY   = 109.3244

EPHEMERIS_TYPE = 0
CLASSIFICATION_TYPE = U
NORAD_CAT_ID   = 66983
ELEMENT_SET_NO = 999
REV_AT_EPOCH   = 535
BSTAR          = .25568E-2
MEAN_MOTION_DOT = .152723E-2
MEAN_MOTION_DDOT = 0

CCSDS_OMM_VERS = 2.0
CREATION_DATE  = 
ORIGINATOR     = 

OBJECT_NAME    = STARLINK-35591
OBJECT_ID      = 2025-288AB
CENTER_NAME    = EARTH
REF_FRAME      = TEME
TIME_SYSTEM    = UTC
MEAN_ELEMENT_THEORY = SGP/SGP4

EPOCH          = 2026-01-04T02:14:19.285728
MEAN_MOTION    = 15.50589105
ECCENTRICITY   = .0001388
INCLINATION    = 43.0001
RA_OF_ASC_NODE = 32.9837
ARG_OF_PERICENTER = 258.5006
MEAN_ANOMALY   = 101.5698

EPHEMERIS_TYPE = 0
CLASSIFICATION_TYPE = U
NORAD_CAT_ID   = 66984
ELEMENT_SET_NO = 999
REV_AT_EPOCH   = 535
BSTAR          = .20522E-2
MEAN_MOTION_DOT = .121989E-2
MEAN_MOTION_DDOT = 0

