STARLINK-35778          
1 66973U 25288Q   26004.16668980  .00042916  00000+0  10295-2 0  9992
2 66973  43.0007  32.9098 0000921 254.4197  11.2627 15.40682458  5436
STARLINK-35780          
1 66974U 25288R   26004.16668980  .00044212  00000+0  10610-2 0  9995
2 66974  43.0004  32.8494 0000674 256.1982  34.4398 15.40657093  5438
STARLINK-35777          
1 66975U 25288S   26004.16668980  .00038531  00000+0  92625-3 0  9990
2 66975  43.0002  32.8175 0001128 257.8448  45.2372 15.40659645  5430
STARLINK-35772          
1 66976U 25288T   26004.12844225  .00074433  00000+0  17707-2 0  9993
2 66976  43.0019  35.0295 0001320 286.4447  73.6264 15.40719174  5336
STARLINK-35770          
1 66977U 25288U   26001.58383638  .00106642  00000+0  17973-2 0  9990
2 66977  43.0009  47.6983 0001130 275.3451  84.7280 15.50604727  4967
STARLINK-35787          
1 66978U 25288V   26004.12108793  .00095356  00000+0  22580-2 0  9990
2 66978  43.0006  33.2006 0000370  18.7264 341.3606 15.40747585  5355
STARLINK-36107          
1 66979U 25288W   26004.09466323  .00153330  00000+0  25633-2 0  9992
2 66979  43.0009  32.9963 0001429 241.3351 118.7365 15.50636151  5359
STARLINK-36086          
1 66980U 25288X   26004.16668980  .00043345  00000+0  10405-2 0  9990
2 66980  43.0000  32.7559 0000776 231.9592  95.9944 15.40657832  5433
STARLINK-36142          
1 66981U 25288Y   26004.16668980  .00039024  00000+0  93802-3 0  9993
2 66981  42.9995  32.6955 0001162 262.9291  89.9245 15.40656953  5434
STARLINK-36113          
1 66982U 25288Z   26004.09364865  .00094524  00000+0  16080-2 0  9999
2 66982  43.0006  32.9870 0003756 245.9794 114.0673 15.50392213  5352
STARLINK-36145          
1 66983U 25288AA  26004.09293676  .00152723  00000+0  25568-2 0  9998
2 66983  43.0005  32.9821 0001094 250.7498 109.3244 15.50598719  5356
STARLINK-35591          
1 66984U 25288AB  26004.09327877  .00121989  00000+0  20522-2 0  9995
2 66984  43.0001  32.9837 0001388 258.5006 101.5698 15.50589105  5353
